<?xml version="1.0" encoding="UTF-8"?>
<seiscomp xmlns="http://geofon.gfz-potsdam.de/ns/seiscomp3-schema/0.13" version="0.13">
  <EventParameters>
    <pick publicID="20240912.194155.43-EQCCT-4O.SA04.00.HHZ">
      <time>
        <value>2024-09-12T19:41:55.431Z</value>
      </time>
      <waveformID networkCode="4O" stationCode="SA04" locationCode="00" channelCode="HHZ"/>
      <filterID>Probability_0.891</filterID>
      <methodID>EQCCT</methodID>
      <phaseHint>P</phaseHint>
      <evaluationMode>automatic</evaluationMode>
      <creationInfo>
        <agencyID>TEXNET</agencyID>
        <author>EQCCT</author>
        <creationTime>2024-09-12T19:42:58.954551Z</creationTime>
      </creationInfo>
    </pick>
    <pick publicID="20240912.194157.80-EQCCT-4O.SA04.00.HHZ">
      <time>
        <value>2024-09-12T19:41:57.801Z</value>
      </time>
      <waveformID networkCode="4O" stationCode="SA04" locationCode="00" channelCode="HHZ"/>
      <filterID>Probability_0.78</filterID>
      <methodID>EQCCT</methodID>
      <phaseHint>S</phaseHint>
      <evaluationMode>automatic</evaluationMode>
      <creationInfo>
        <agencyID>TEXNET</agencyID>
        <author>EQCCT</author>
        <creationTime>2024-09-12T19:42:58.954589Z</creationTime>
      </creationInfo>
      <comment>
        <text>20240912.194155.43-EQCCT-4O.SA04.00.HHZ</text>
        <id>RefPickID</id>
      </comment>
    </pick>
    <pick publicID="20240912.194155.35-EQCCT-TX.PB29.00.HHZ">
      <time>
        <value>2024-09-12T19:41:55.35Z</value>
      </time>
      <waveformID networkCode="TX" stationCode="PB29" locationCode="00" channelCode="HHZ"/>
      <filterID>Probability_0.036</filterID>
      <methodID>EQCCT</methodID>
      <phaseHint>P</phaseHint>
      <evaluationMode>automatic</evaluationMode>
      <creationInfo>
        <agencyID>TEXNET</agencyID>
        <author>EQCCT</author>
        <creationTime>2024-09-12T19:42:58.954617Z</creationTime>
      </creationInfo>
    </pick>
    <pick publicID="20240912.192325.43-EQCCT-TX.PB38.00.HHZ">
      <time>
        <value>2024-09-12T19:23:25.43Z</value>
      </time>
      <waveformID networkCode="TX" stationCode="PB38" locationCode="00" channelCode="HHZ"/>
      <filterID>Probability_0.084</filterID>
      <methodID>EQCCT</methodID>
      <phaseHint>P</phaseHint>
      <evaluationMode>automatic</evaluationMode>
      <creationInfo>
        <agencyID>TEXNET</agencyID>
        <author>EQCCT</author>
        <creationTime>2024-09-12T19:24:31.894132Z</creationTime>
      </creationInfo>
    </pick>
    <pick publicID="20240912.192341.90-EQCCT-TX.PB38.00.HHZ">
      <time>
        <value>2024-09-12T19:23:41.9Z</value>
      </time>
      <waveformID networkCode="TX" stationCode="PB38" locationCode="00" channelCode="HHZ"/>
      <filterID>Probability_0.601</filterID>
      <methodID>EQCCT</methodID>
      <phaseHint>S</phaseHint>
      <evaluationMode>automatic</evaluationMode>
      <creationInfo>
        <agencyID>TEXNET</agencyID>
        <author>EQCCT</author>
        <creationTime>2024-09-12T19:24:31.894171Z</creationTime>
      </creationInfo>
      <comment>
        <text>20240912.192325.43-EQCCT-TX.PB38.00.HHZ</text>
        <id>RefPickID</id>
      </comment>
    </pick>
    <pick publicID="20240912.192325.43-EQCCT-4O.SA04.00.HHZ">
      <time>
        <value>2024-09-12T19:23:25.431Z</value>
      </time>
      <waveformID networkCode="4O" stationCode="SA04" locationCode="00" channelCode="HHZ"/>
      <filterID>Probability_0.781</filterID>
      <methodID>EQCCT</methodID>
      <phaseHint>P</phaseHint>
      <evaluationMode>automatic</evaluationMode>
      <creationInfo>
        <agencyID>TEXNET</agencyID>
        <author>EQCCT</author>
        <creationTime>2024-09-12T19:24:31.894199Z</creationTime>
      </creationInfo>
    </pick>
    <pick publicID="20240912.192328.81-EQCCT-4O.SA04.00.HHZ">
      <time>
        <value>2024-09-12T19:23:28.811Z</value>
      </time>
      <waveformID networkCode="4O" stationCode="SA04" locationCode="00" channelCode="HHZ"/>
      <filterID>Probability_0.119</filterID>
      <methodID>EQCCT</methodID>
      <phaseHint>S</phaseHint>
      <evaluationMode>automatic</evaluationMode>
      <creationInfo>
        <agencyID>TEXNET</agencyID>
        <author>EQCCT</author>
        <creationTime>2024-09-12T19:24:31.894222Z</creationTime>
      </creationInfo>
      <comment>
        <text>20240912.192325.43-EQCCT-4O.SA04.00.HHZ</text>
        <id>RefPickID</id>
      </comment>
    </pick>
    <pick publicID="20240912.194725.43-EQCCT-TX.PB38.00.HHZ">
      <time>
        <value>2024-09-12T19:47:25.43Z</value>
      </time>
      <waveformID networkCode="TX" stationCode="PB38" locationCode="00" channelCode="HHZ"/>
      <filterID>Probability_0.074</filterID>
      <methodID>EQCCT</methodID>
      <phaseHint>P</phaseHint>
      <evaluationMode>automatic</evaluationMode>
      <creationInfo>
        <agencyID>TEXNET</agencyID>
        <author>EQCCT</author>
        <creationTime>2024-09-12T19:48:32.129156Z</creationTime>
      </creationInfo>
    </pick>
    <pick publicID="20240912.194800.97-EQCCT-TX.PB38.00.HHZ">
      <time>
        <value>2024-09-12T19:48:00.97Z</value>
      </time>
      <waveformID networkCode="TX" stationCode="PB38" locationCode="00" channelCode="HHZ"/>
      <filterID>Probability_0.891</filterID>
      <methodID>EQCCT</methodID>
      <phaseHint>S</phaseHint>
      <evaluationMode>automatic</evaluationMode>
      <creationInfo>
        <agencyID>TEXNET</agencyID>
        <author>EQCCT</author>
        <creationTime>2024-09-12T19:49:00.482019Z</creationTime>
      </creationInfo>
      <comment>
        <text>20240912.194755.51-EQCCT-TX.PB38.00.HHZ</text>
        <id>RefPickID</id>
      </comment>
    </pick>
    <pick publicID="20240912.194744.05-EQCCT-TX.PB26.00.HHZ">
      <time>
        <value>2024-09-12T19:47:44.051Z</value>
      </time>
      <waveformID networkCode="TX" stationCode="PB26" locationCode="00" channelCode="HHZ"/>
      <filterID>Probability_0.894</filterID>
      <methodID>EQCCT</methodID>
      <phaseHint>P</phaseHint>
      <evaluationMode>automatic</evaluationMode>
      <creationInfo>
        <agencyID>TEXNET</agencyID>
        <author>EQCCT</author>
        <creationTime>2024-09-12T19:48:32.129272Z</creationTime>
      </creationInfo>
    </pick>
    <pick publicID="20240912.194745.15-EQCCT-TX.PB26.00.HHZ">
      <time>
        <value>2024-09-12T19:47:45.151Z</value>
      </time>
      <waveformID networkCode="TX" stationCode="PB26" locationCode="00" channelCode="HHZ"/>
      <filterID>Probability_0.88</filterID>
      <methodID>EQCCT</methodID>
      <phaseHint>S</phaseHint>
      <evaluationMode>automatic</evaluationMode>
      <creationInfo>
        <agencyID>TEXNET</agencyID>
        <author>EQCCT</author>
        <creationTime>2024-09-12T19:48:32.129314Z</creationTime>
      </creationInfo>
      <comment>
        <text>20240912.194744.05-EQCCT-TX.PB26.00.HHZ</text>
        <id>RefPickID</id>
      </comment>
    </pick>
    <pick publicID="20240912.194531.51-EQCCT-TX.PB29.00.HHZ">
      <time>
        <value>2024-09-12T19:45:31.51Z</value>
      </time>
      <waveformID networkCode="TX" stationCode="PB29" locationCode="00" channelCode="HHZ"/>
      <filterID>Probability_0.015</filterID>
      <methodID>EQCCT</methodID>
      <phaseHint>P</phaseHint>
      <evaluationMode>automatic</evaluationMode>
      <creationInfo>
        <agencyID>TEXNET</agencyID>
        <author>EQCCT</author>
        <creationTime>2024-09-12T19:46:31.930686Z</creationTime>
      </creationInfo>
    </pick>
    <pick publicID="20240912.192925.41-EQCCT-TX.PB29.00.HHZ">
      <time>
        <value>2024-09-12T19:29:25.41Z</value>
      </time>
      <waveformID networkCode="TX" stationCode="PB29" locationCode="00" channelCode="HHZ"/>
      <filterID>Probability_0.007</filterID>
      <methodID>EQCCT</methodID>
      <phaseHint>P</phaseHint>
      <evaluationMode>automatic</evaluationMode>
      <creationInfo>
        <agencyID>TEXNET</agencyID>
        <author>EQCCT</author>
        <creationTime>2024-09-12T19:30:32.370256Z</creationTime>
      </creationInfo>
    </pick>
    <pick publicID="20240912.192303.32-EQCCT-TX.PB26.00.HHZ">
      <time>
        <value>2024-09-12T19:23:03.321Z</value>
      </time>
      <waveformID networkCode="TX" stationCode="PB26" locationCode="00" channelCode="HHZ"/>
      <filterID>Probability_0.892</filterID>
      <methodID>EQCCT</methodID>
      <phaseHint>P</phaseHint>
      <evaluationMode>automatic</evaluationMode>
      <creationInfo>
        <agencyID>TEXNET</agencyID>
        <author>EQCCT</author>
        <creationTime>2024-09-12T19:24:00.680722Z</creationTime>
      </creationInfo>
    </pick>
    <pick publicID="20240912.192304.38-EQCCT-TX.PB26.00.HHZ">
      <time>
        <value>2024-09-12T19:23:04.381Z</value>
      </time>
      <waveformID networkCode="TX" stationCode="PB26" locationCode="00" channelCode="HHZ"/>
      <filterID>Probability_0.892</filterID>
      <methodID>EQCCT</methodID>
      <phaseHint>S</phaseHint>
      <evaluationMode>automatic</evaluationMode>
      <creationInfo>
        <agencyID>TEXNET</agencyID>
        <author>EQCCT</author>
        <creationTime>2024-09-12T19:23:31.401911Z</creationTime>
      </creationInfo>
      <comment>
        <text>20240912.192303.30-EQCCT-TX.PB26.00.HHZ</text>
        <id>RefPickID</id>
      </comment>
    </pick>
    <pick publicID="20240912.193923.60-EQCCT-TX.PB26.00.HHZ">
      <time>
        <value>2024-09-12T19:39:23.601Z</value>
      </time>
      <waveformID networkCode="TX" stationCode="PB26" locationCode="00" channelCode="HHZ"/>
      <filterID>Probability_0.003</filterID>
      <methodID>EQCCT</methodID>
      <phaseHint>P</phaseHint>
      <evaluationMode>automatic</evaluationMode>
      <creationInfo>
        <agencyID>TEXNET</agencyID>
        <author>EQCCT</author>
        <creationTime>2024-09-12T19:40:01.008135Z</creationTime>
      </creationInfo>
    </pick>
    <pick publicID="20240912.193926.40-EQCCT-TX.PB26.00.HHZ">
      <time>
        <value>2024-09-12T19:39:26.401Z</value>
      </time>
      <waveformID networkCode="TX" stationCode="PB26" locationCode="00" channelCode="HHZ"/>
      <filterID>Probability_0.857</filterID>
      <methodID>EQCCT</methodID>
      <phaseHint>S</phaseHint>
      <evaluationMode>automatic</evaluationMode>
      <creationInfo>
        <agencyID>TEXNET</agencyID>
        <author>EQCCT</author>
        <creationTime>2024-09-12T19:40:31.185168Z</creationTime>
      </creationInfo>
      <comment>
        <text>20240912.193925.41-EQCCT-TX.PB26.00.HHZ</text>
        <id>RefPickID</id>
      </comment>
    </pick>
    <pick publicID="20240912.194327.18-EQCCT-TX.PB29.00.HHZ">
      <time>
        <value>2024-09-12T19:43:27.18Z</value>
      </time>
      <waveformID networkCode="TX" stationCode="PB29" locationCode="00" channelCode="HHZ"/>
      <filterID>Probability_0.91</filterID>
      <methodID>EQCCT</methodID>
      <phaseHint>P</phaseHint>
      <evaluationMode>automatic</evaluationMode>
      <creationInfo>
        <agencyID>TEXNET</agencyID>
        <author>EQCCT</author>
        <creationTime>2024-09-12T19:44:00.899149Z</creationTime>
      </creationInfo>
    </pick>
    <pick publicID="20240912.194329.27-EQCCT-TX.PB29.00.HHZ">
      <time>
        <value>2024-09-12T19:43:29.27Z</value>
      </time>
      <waveformID networkCode="TX" stationCode="PB29" locationCode="00" channelCode="HHZ"/>
      <filterID>Probability_0.865</filterID>
      <methodID>EQCCT</methodID>
      <phaseHint>S</phaseHint>
      <evaluationMode>automatic</evaluationMode>
      <creationInfo>
        <agencyID>TEXNET</agencyID>
        <author>EQCCT</author>
        <creationTime>2024-09-12T19:44:00.899189Z</creationTime>
      </creationInfo>
      <comment>
        <text>20240912.194327.18-EQCCT-TX.PB29.00.HHZ</text>
        <id>RefPickID</id>
      </comment>
    </pick>
    <pick publicID="20240912.191859.70-EQCCT-TX.PB38.00.HHZ">
      <time>
        <value>2024-09-12T19:18:59.7Z</value>
      </time>
      <waveformID networkCode="TX" stationCode="PB38" locationCode="00" channelCode="HHZ"/>
      <filterID>Probability_0.56</filterID>
      <methodID>EQCCT</methodID>
      <phaseHint>P</phaseHint>
      <evaluationMode>automatic</evaluationMode>
      <creationInfo>
        <agencyID>TEXNET</agencyID>
        <author>EQCCT</author>
        <creationTime>2024-09-12T19:19:51.126412Z</creationTime>
      </creationInfo>
    </pick>
    <pick publicID="20240912.191901.85-EQCCT-TX.PB38.00.HHZ">
      <time>
        <value>2024-09-12T19:19:01.85Z</value>
      </time>
      <waveformID networkCode="TX" stationCode="PB38" locationCode="00" channelCode="HHZ"/>
      <filterID>Probability_0.836</filterID>
      <methodID>EQCCT</methodID>
      <phaseHint>S</phaseHint>
      <evaluationMode>automatic</evaluationMode>
      <creationInfo>
        <agencyID>TEXNET</agencyID>
        <author>EQCCT</author>
        <creationTime>2024-09-12T19:19:59.188894Z</creationTime>
      </creationInfo>
      <comment>
        <text>20240912.191859.74-EQCCT-TX.PB38.00.HHZ</text>
        <id>RefPickID</id>
      </comment>
    </pick>
    <pick publicID="20240912.192525.37-EQCCT-4O.SA04.00.HHZ">
      <time>
        <value>2024-09-12T19:25:25.371Z</value>
      </time>
      <waveformID networkCode="4O" stationCode="SA04" locationCode="00" channelCode="HHZ"/>
      <filterID>Probability_0.006</filterID>
      <methodID>EQCCT</methodID>
      <phaseHint>P</phaseHint>
      <evaluationMode>automatic</evaluationMode>
      <creationInfo>
        <agencyID>TEXNET</agencyID>
        <author>EQCCT</author>
        <creationTime>2024-09-12T19:26:32.033868Z</creationTime>
      </creationInfo>
    </pick>
    <pick publicID="20240912.192552.78-EQCCT-4O.SA04.00.HHZ">
      <time>
        <value>2024-09-12T19:25:52.781Z</value>
      </time>
      <waveformID networkCode="4O" stationCode="SA04" locationCode="00" channelCode="HHZ"/>
      <filterID>Probability_0.794</filterID>
      <methodID>EQCCT</methodID>
      <phaseHint>S</phaseHint>
      <evaluationMode>automatic</evaluationMode>
      <creationInfo>
        <agencyID>TEXNET</agencyID>
        <author>EQCCT</author>
        <creationTime>2024-09-12T19:26:32.033908Z</creationTime>
      </creationInfo>
      <comment>
        <text>20240912.192525.37-EQCCT-4O.SA04.00.HHZ</text>
        <id>RefPickID</id>
      </comment>
    </pick>
    <pick publicID="20240912.194555.43-EQCCT-TX.PB29.00.HHZ">
      <time>
        <value>2024-09-12T19:45:55.43Z</value>
      </time>
      <waveformID networkCode="TX" stationCode="PB29" locationCode="00" channelCode="HHZ"/>
      <filterID>Probability_0.876</filterID>
      <methodID>EQCCT</methodID>
      <phaseHint>P</phaseHint>
      <evaluationMode>automatic</evaluationMode>
      <creationInfo>
        <agencyID>TEXNET</agencyID>
        <author>EQCCT</author>
        <creationTime>2024-09-12T19:47:01.511507Z</creationTime>
      </creationInfo>
    </pick>
    <pick publicID="20240912.194601.32-EQCCT-TX.PB29.00.HHZ">
      <time>
        <value>2024-09-12T19:46:01.32Z</value>
      </time>
      <waveformID networkCode="TX" stationCode="PB29" locationCode="00" channelCode="HHZ"/>
      <filterID>Probability_0.721</filterID>
      <methodID>EQCCT</methodID>
      <phaseHint>S</phaseHint>
      <evaluationMode>automatic</evaluationMode>
      <creationInfo>
        <agencyID>TEXNET</agencyID>
        <author>EQCCT</author>
        <creationTime>2024-09-12T19:47:01.511548Z</creationTime>
      </creationInfo>
      <comment>
        <text>20240912.194555.43-EQCCT-TX.PB29.00.HHZ</text>
        <id>RefPickID</id>
      </comment>
    </pick>
    <pick publicID="20240912.192658.43-EQCCT-TX.PB26.00.HHZ">
      <time>
        <value>2024-09-12T19:26:58.431Z</value>
      </time>
      <waveformID networkCode="TX" stationCode="PB26" locationCode="00" channelCode="HHZ"/>
      <filterID>Probability_0.286</filterID>
      <methodID>EQCCT</methodID>
      <phaseHint>P</phaseHint>
      <evaluationMode>automatic</evaluationMode>
      <creationInfo>
        <agencyID>TEXNET</agencyID>
        <author>EQCCT</author>
        <creationTime>2024-09-12T19:28:00.136963Z</creationTime>
      </creationInfo>
    </pick>
    <pick publicID="20240912.192711.01-EQCCT-TX.PB26.00.HHZ">
      <time>
        <value>2024-09-12T19:27:11.011Z</value>
      </time>
      <waveformID networkCode="TX" stationCode="PB26" locationCode="00" channelCode="HHZ"/>
      <filterID>Probability_0.042</filterID>
      <methodID>EQCCT</methodID>
      <phaseHint>S</phaseHint>
      <evaluationMode>automatic</evaluationMode>
      <creationInfo>
        <agencyID>TEXNET</agencyID>
        <author>EQCCT</author>
        <creationTime>2024-09-12T19:28:00.137002Z</creationTime>
      </creationInfo>
      <comment>
        <text>20240912.192658.43-EQCCT-TX.PB26.00.HHZ</text>
        <id>RefPickID</id>
      </comment>
    </pick>
    <pick publicID="20240912.194755.51-EQCCT-TX.PB38.00.HHZ">
      <time>
        <value>2024-09-12T19:47:55.51Z</value>
      </time>
      <waveformID networkCode="TX" stationCode="PB38" locationCode="00" channelCode="HHZ"/>
      <filterID>Probability_0.56</filterID>
      <methodID>EQCCT</methodID>
      <phaseHint>P</phaseHint>
      <evaluationMode>automatic</evaluationMode>
      <creationInfo>
        <agencyID>TEXNET</agencyID>
        <author>EQCCT</author>
        <creationTime>2024-09-12T19:49:00.481978Z</creationTime>
      </creationInfo>
    </pick>
    <pick publicID="20240912.194755.43-EQCCT-TX.PB29.00.HHZ">
      <time>
        <value>2024-09-12T19:47:55.43Z</value>
      </time>
      <waveformID networkCode="TX" stationCode="PB29" locationCode="00" channelCode="HHZ"/>
      <filterID>Probability_0.669</filterID>
      <methodID>EQCCT</methodID>
      <phaseHint>P</phaseHint>
      <evaluationMode>automatic</evaluationMode>
      <creationInfo>
        <agencyID>TEXNET</agencyID>
        <author>EQCCT</author>
        <creationTime>2024-09-12T19:49:00.482047Z</creationTime>
      </creationInfo>
    </pick>
    <pick publicID="20240912.194126.31-EQCCT-TX.PB29.00.HHZ">
      <time>
        <value>2024-09-12T19:41:26.31Z</value>
      </time>
      <waveformID networkCode="TX" stationCode="PB29" locationCode="00" channelCode="HHZ"/>
      <filterID>Probability_0.003</filterID>
      <methodID>EQCCT</methodID>
      <phaseHint>P</phaseHint>
      <evaluationMode>automatic</evaluationMode>
      <creationInfo>
        <agencyID>TEXNET</agencyID>
        <author>EQCCT</author>
        <creationTime>2024-09-12T19:42:32.159157Z</creationTime>
      </creationInfo>
    </pick>
    <pick publicID="20240912.193055.43-EQCCT-TX.PB29.00.HHZ">
      <time>
        <value>2024-09-12T19:30:55.43Z</value>
      </time>
      <waveformID networkCode="TX" stationCode="PB29" locationCode="00" channelCode="HHZ"/>
      <filterID>Probability_0.853</filterID>
      <methodID>EQCCT</methodID>
      <phaseHint>P</phaseHint>
      <evaluationMode>automatic</evaluationMode>
      <creationInfo>
        <agencyID>TEXNET</agencyID>
        <author>EQCCT</author>
        <creationTime>2024-09-12T19:31:59.670162Z</creationTime>
      </creationInfo>
    </pick>
    <pick publicID="20240912.193255.41-EQCCT-4O.SA04.00.HHZ">
      <time>
        <value>2024-09-12T19:32:55.411Z</value>
      </time>
      <waveformID networkCode="4O" stationCode="SA04" locationCode="00" channelCode="HHZ"/>
      <filterID>Probability_0.008</filterID>
      <methodID>EQCCT</methodID>
      <phaseHint>P</phaseHint>
      <evaluationMode>automatic</evaluationMode>
      <creationInfo>
        <agencyID>TEXNET</agencyID>
        <author>EQCCT</author>
        <creationTime>2024-09-12T19:33:59.22105Z</creationTime>
      </creationInfo>
    </pick>
