<?xml version="1.0" encoding="UTF-8"?>
<seiscomp xmlns="http://geofon.gfz-potsdam.de/ns/seiscomp3-schema/0.13" version="0.13">
  <EventParameters>
    <pick publicID="20240823.224242.16-EQCCT-TX.DG09.00.CHZ">
      <time>
        <value>2024-08-23T22:42:42.168Z</value>
      </time>
      <waveformID networkCode="TX" stationCode="DG09" locationCode="00" channelCode="CHZ"/>
      <filterID>Probability_0.142</filterID>
      <methodID>EQCCT</methodID>
      <phaseHint>P</phaseHint>
      <evaluationMode>automatic</evaluationMode>
      <creationInfo>
        <agencyID>TEXNET</agencyID>
        <author>EQCCT</author>
        <creationTime>2024-08-23T22:51:19.19877Z</creationTime>
      </creationInfo>
    </pick>
    <pick publicID="20240823.224242.47-EQCCT-TX.DG09.00.CHZ">
      <time>
        <value>2024-08-23T22:42:42.478Z</value>
      </time>
      <waveformID networkCode="TX" stationCode="DG09" locationCode="00" channelCode="CHZ"/>
      <filterID>Probability_0.018</filterID>
      <methodID>EQCCT</methodID>
      <phaseHint>P</phaseHint>
      <evaluationMode>automatic</evaluationMode>
      <creationInfo>
        <agencyID>TEXNET</agencyID>
        <author>EQCCT</author>
        <creationTime>2024-08-23T22:51:19.198843Z</creationTime>
      </creationInfo>
    </pick>
    <pick publicID="20240823.224242.47-EQCCT-TX.DG09.00.CHZ">
      <time>
        <value>2024-08-23T22:42:42.478Z</value>
      </time>
      <waveformID networkCode="TX" stationCode="DG09" locationCode="00" channelCode="CHZ"/>
      <filterID>Probability_0.018</filterID>
      <methodID>EQCCT</methodID>
      <phaseHint>P</phaseHint>
      <evaluationMode>automatic</evaluationMode>
      <creationInfo>
        <agencyID>TEXNET</agencyID>
        <author>EQCCT</author>
        <creationTime>2024-08-23T22:51:19.198883Z</creationTime>
      </creationInfo>
    </pick>
    <pick publicID="20240823.224850.01-EQCCT-TX.PB16.00.HHZ">
      <time>
        <value>2024-08-23T22:48:50.01Z</value>
      </time>
      <waveformID networkCode="TX" stationCode="PB16" locationCode="00" channelCode="HHZ"/>
      <filterID>Probability_0.228</filterID>
      <methodID>EQCCT</methodID>
      <phaseHint>P</phaseHint>
      <evaluationMode>automatic</evaluationMode>
      <creationInfo>
        <agencyID>TEXNET</agencyID>
        <author>EQCCT</author>
        <creationTime>2024-08-23T22:49:19.209834Z</creationTime>
      </creationInfo>
    </pick>
    <pick publicID="20240823.224850.01-EQCCT-TX.PB16.00.HHZ">
      <time>
        <value>2024-08-23T22:48:50.01Z</value>
      </time>
      <waveformID networkCode="TX" stationCode="PB16" locationCode="00" channelCode="HHZ"/>
      <filterID>Probability_0.228</filterID>
      <methodID>EQCCT</methodID>
      <phaseHint>P</phaseHint>
      <evaluationMode>automatic</evaluationMode>
      <creationInfo>
        <agencyID>TEXNET</agencyID>
        <author>EQCCT</author>
        <creationTime>2024-08-23T22:49:19.209875Z</creationTime>
      </creationInfo>
    </pick>
    <pick publicID="20240823.224850.01-EQCCT-TX.PB16.00.HHZ">
      <time>
        <value>2024-08-23T22:48:50.01Z</value>
      </time>
      <waveformID networkCode="TX" stationCode="PB16" locationCode="00" channelCode="HHZ"/>
      <filterID>Probability_0.215</filterID>
      <methodID>EQCCT</methodID>
      <phaseHint>P</phaseHint>
      <evaluationMode>automatic</evaluationMode>
      <creationInfo>
        <agencyID>TEXNET</agencyID>
        <author>EQCCT</author>
        <creationTime>2024-08-23T22:49:19.209904Z</creationTime>
      </creationInfo>
    </pick>
    <pick publicID="20240823.225957.48-EQCCT-TX.PB03.00.HHZ">
      <time>
        <value>2024-08-23T22:59:57.48Z</value>
      </time>
      <waveformID networkCode="TX" stationCode="PB03" locationCode="00" channelCode="HHZ"/>
      <filterID>Probability_0.002</filterID>
      <methodID>EQCCT</methodID>
      <phaseHint>P</phaseHint>
      <evaluationMode>automatic</evaluationMode>
      <creationInfo>
        <agencyID>TEXNET</agencyID>
        <author>EQCCT</author>
        <creationTime>2024-08-23T23:01:03.319363Z</creationTime>
      </creationInfo>
    </pick>
    <pick publicID="20240823.225957.48-EQCCT-TX.PB03.00.HHZ">
      <time>
        <value>2024-08-23T22:59:57.48Z</value>
      </time>
      <waveformID networkCode="TX" stationCode="PB03" locationCode="00" channelCode="HHZ"/>
      <filterID>Probability_0.002</filterID>
      <methodID>EQCCT</methodID>
      <phaseHint>P</phaseHint>
      <evaluationMode>automatic</evaluationMode>
      <creationInfo>
        <agencyID>TEXNET</agencyID>
        <author>EQCCT</author>
        <creationTime>2024-08-23T23:01:03.319411Z</creationTime>
      </creationInfo>
    </pick>
    <pick publicID="20240823.225957.48-EQCCT-TX.PB03.00.HHZ">
      <time>
        <value>2024-08-23T22:59:57.48Z</value>
      </time>
      <waveformID networkCode="TX" stationCode="PB03" locationCode="00" channelCode="HHZ"/>
      <filterID>Probability_0.002</filterID>
      <methodID>EQCCT</methodID>
      <phaseHint>P</phaseHint>
      <evaluationMode>automatic</evaluationMode>
      <creationInfo>
        <agencyID>TEXNET</agencyID>
        <author>EQCCT</author>
        <creationTime>2024-08-23T23:01:03.319444Z</creationTime>
      </creationInfo>
    </pick>
    <pick publicID="20240823.231637.56-EQCCT-TX.PB03.00.HHZ">
      <time>
        <value>2024-08-23T23:16:37.56Z</value>
      </time>
      <waveformID networkCode="TX" stationCode="PB03" locationCode="00" channelCode="HHZ"/>
      <filterID>Probability_0.213</filterID>
      <methodID>EQCCT</methodID>
      <phaseHint>P</phaseHint>
      <evaluationMode>automatic</evaluationMode>
      <creationInfo>
        <agencyID>TEXNET</agencyID>
        <author>EQCCT</author>
        <creationTime>2024-08-23T23:17:39.353746Z</creationTime>
      </creationInfo>
    </pick>
    <pick publicID="20240823.231637.56-EQCCT-TX.PB03.00.HHZ">
      <time>
        <value>2024-08-23T23:16:37.56Z</value>
      </time>
      <waveformID networkCode="TX" stationCode="PB03" locationCode="00" channelCode="HHZ"/>
      <filterID>Probability_0.213</filterID>
      <methodID>EQCCT</methodID>
      <phaseHint>P</phaseHint>
      <evaluationMode>automatic</evaluationMode>
      <creationInfo>
        <agencyID>TEXNET</agencyID>
        <author>EQCCT</author>
        <creationTime>2024-08-23T23:17:39.353816Z</creationTime>
      </creationInfo>
    </pick>
    <pick publicID="20240823.231708.49-EQCCT-TX.PB03.00.HHZ">
      <time>
        <value>2024-08-23T23:17:08.49Z</value>
      </time>
      <waveformID networkCode="TX" stationCode="PB03" locationCode="00" channelCode="HHZ"/>
      <filterID>Probability_0.109</filterID>
      <methodID>EQCCT</methodID>
      <phaseHint>P</phaseHint>
      <evaluationMode>automatic</evaluationMode>
      <creationInfo>
        <agencyID>TEXNET</agencyID>
        <author>EQCCT</author>
        <creationTime>2024-08-23T23:17:39.35385Z</creationTime>
      </creationInfo>
    </pick>
    <pick publicID="20240823.214909.56-EQCCT-TX.PB03.00.HHZ">
      <time>
        <value>2024-08-23T21:49:09.56Z</value>
      </time>
      <waveformID networkCode="TX" stationCode="PB03" locationCode="00" channelCode="HHZ"/>
      <filterID>Probability_0.215</filterID>
      <methodID>EQCCT</methodID>
      <phaseHint>P</phaseHint>
      <evaluationMode>automatic</evaluationMode>
      <creationInfo>
        <agencyID>TEXNET</agencyID>
        <author>EQCCT</author>
        <creationTime>2024-08-23T21:50:16.139652Z</creationTime>
      </creationInfo>
    </pick>
    <pick publicID="20240823.214909.56-EQCCT-TX.PB03.00.HHZ">
      <time>
        <value>2024-08-23T21:49:09.56Z</value>
      </time>
      <waveformID networkCode="TX" stationCode="PB03" locationCode="00" channelCode="HHZ"/>
      <filterID>Probability_0.215</filterID>
      <methodID>EQCCT</methodID>
      <phaseHint>P</phaseHint>
      <evaluationMode>automatic</evaluationMode>
      <creationInfo>
        <agencyID>TEXNET</agencyID>
        <author>EQCCT</author>
        <creationTime>2024-08-23T21:50:16.139706Z</creationTime>
      </creationInfo>
    </pick>
    <pick publicID="20240823.214909.56-EQCCT-TX.PB03.00.HHZ">
      <time>
        <value>2024-08-23T21:49:09.56Z</value>
      </time>
      <waveformID networkCode="TX" stationCode="PB03" locationCode="00" channelCode="HHZ"/>
      <filterID>Probability_0.215</filterID>
      <methodID>EQCCT</methodID>
      <phaseHint>P</phaseHint>
      <evaluationMode>automatic</evaluationMode>
      <creationInfo>
        <agencyID>TEXNET</agencyID>
        <author>EQCCT</author>
        <creationTime>2024-08-23T21:50:16.139748Z</creationTime>
      </creationInfo>
    </pick>
    <pick publicID="20240823.223405.50-EQCCT-TX.DG09.00.CHZ">
      <time>
        <value>2024-08-23T22:34:05.504Z</value>
      </time>
      <waveformID networkCode="TX" stationCode="DG09" locationCode="00" channelCode="CHZ"/>
      <filterID>Probability_0.006</filterID>
      <methodID>EQCCT</methodID>
      <phaseHint>P</phaseHint>
      <evaluationMode>automatic</evaluationMode>
      <creationInfo>
        <agencyID>TEXNET</agencyID>
        <author>EQCCT</author>
        <creationTime>2024-08-23T22:42:59.162331Z</creationTime>
      </creationInfo>
    </pick>
    <pick publicID="20240823.223358.42-EQCCT-TX.DG04.00.CHZ">
      <time>
        <value>2024-08-23T22:33:58.422Z</value>
      </time>
      <waveformID networkCode="TX" stationCode="DG04" locationCode="00" channelCode="CHZ"/>
      <filterID>Probability_0.002</filterID>
      <methodID>EQCCT</methodID>
      <phaseHint>P</phaseHint>
      <evaluationMode>automatic</evaluationMode>
      <creationInfo>
        <agencyID>TEXNET</agencyID>
        <author>EQCCT</author>
        <creationTime>2024-08-23T22:42:59.162367Z</creationTime>
      </creationInfo>
    </pick>
    <pick publicID="20240823.223359.70-EQCCT-TX.DG04.00.CHZ">
      <time>
        <value>2024-08-23T22:33:59.702Z</value>
      </time>
      <waveformID networkCode="TX" stationCode="DG04" locationCode="00" channelCode="CHZ"/>
      <filterID>Probability_0.04</filterID>
      <methodID>EQCCT</methodID>
      <phaseHint>S</phaseHint>
      <evaluationMode>automatic</evaluationMode>
      <creationInfo>
        <agencyID>TEXNET</agencyID>
        <author>EQCCT</author>
        <creationTime>2024-08-23T22:42:59.162392Z</creationTime>
      </creationInfo>
      <comment>
        <text>20240823.223358.42-EQCCT-TX.DG04.00.CHZ</text>
        <id>RefPickID</id>
      </comment>
    </pick>
    <pick publicID="20240823.223357.74-EQCCT-TX.DG04.00.CHZ">
      <time>
        <value>2024-08-23T22:33:57.742Z</value>
      </time>
      <waveformID networkCode="TX" stationCode="DG04" locationCode="00" channelCode="CHZ"/>
      <filterID>Probability_0.004</filterID>
      <methodID>EQCCT</methodID>
      <phaseHint>P</phaseHint>
      <evaluationMode>automatic</evaluationMode>
      <creationInfo>
        <agencyID>TEXNET</agencyID>
        <author>EQCCT</author>
        <creationTime>2024-08-23T22:42:59.162415Z</creationTime>
      </creationInfo>
    </pick>
    <pick publicID="20240823.223359.72-EQCCT-TX.DG04.00.CHZ">
      <time>
        <value>2024-08-23T22:33:59.722Z</value>
      </time>
      <waveformID networkCode="TX" stationCode="DG04" locationCode="00" channelCode="CHZ"/>
      <filterID>Probability_0.06</filterID>
      <methodID>EQCCT</methodID>
      <phaseHint>S</phaseHint>
      <evaluationMode>automatic</evaluationMode>
      <creationInfo>
        <agencyID>TEXNET</agencyID>
        <author>EQCCT</author>
        <creationTime>2024-08-23T22:42:59.162437Z</creationTime>
      </creationInfo>
      <comment>
        <text>20240823.223357.74-EQCCT-TX.DG04.00.CHZ</text>
        <id>RefPickID</id>
      </comment>
    </pick>
    <pick publicID="20240823.223358.42-EQCCT-TX.DG04.00.CHZ">
      <time>
        <value>2024-08-23T22:33:58.422Z</value>
      </time>
      <waveformID networkCode="TX" stationCode="DG04" locationCode="00" channelCode="CHZ"/>
      <filterID>Probability_0.002</filterID>
      <methodID>EQCCT</methodID>
      <phaseHint>P</phaseHint>
      <evaluationMode>automatic</evaluationMode>
      <creationInfo>
        <agencyID>TEXNET</agencyID>
        <author>EQCCT</author>
        <creationTime>2024-08-23T22:42:59.162459Z</creationTime>
      </creationInfo>
    </pick>
    <pick publicID="20240823.223359.70-EQCCT-TX.DG04.00.CHZ">
      <time>
        <value>2024-08-23T22:33:59.702Z</value>
      </time>
      <waveformID networkCode="TX" stationCode="DG04" locationCode="00" channelCode="CHZ"/>
      <filterID>Probability_0.04</filterID>
      <methodID>EQCCT</methodID>
      <phaseHint>S</phaseHint>
      <evaluationMode>automatic</evaluationMode>
      <creationInfo>
        <agencyID>TEXNET</agencyID>
        <author>EQCCT</author>
        <creationTime>2024-08-23T22:42:59.162479Z</creationTime>
      </creationInfo>
      <comment>
        <text>20240823.223358.42-EQCCT-TX.DG04.00.CHZ</text>
        <id>RefPickID</id>
      </comment>
    </pick>
    <pick publicID="20240823.223405.60-EQCCT-TX.DG09.00.CHZ">
      <time>
        <value>2024-08-23T22:34:05.604Z</value>
      </time>
      <waveformID networkCode="TX" stationCode="DG09" locationCode="00" channelCode="CHZ"/>
      <filterID>Probability_0.003</filterID>
      <methodID>EQCCT</methodID>
      <phaseHint>P</phaseHint>
      <evaluationMode>automatic</evaluationMode>
      <creationInfo>
        <agencyID>TEXNET</agencyID>
        <author>EQCCT</author>
        <creationTime>2024-08-23T22:42:59.162499Z</creationTime>
      </creationInfo>
    </pick>
    <pick publicID="20240823.223405.60-EQCCT-TX.DG09.00.CHZ">
      <time>
        <value>2024-08-23T22:34:05.604Z</value>
      </time>
      <waveformID networkCode="TX" stationCode="DG09" locationCode="00" channelCode="CHZ"/>
      <filterID>Probability_0.003</filterID>
      <methodID>EQCCT</methodID>
      <phaseHint>P</phaseHint>
      <evaluationMode>automatic</evaluationMode>
      <creationInfo>
        <agencyID>TEXNET</agencyID>
        <author>EQCCT</author>
        <creationTime>2024-08-23T22:42:59.162519Z</creationTime>
      </creationInfo>
    </pick>
    <pick publicID="20240823.233240.73-EQCCT-TX.PB32.00.HHZ">
      <time>
        <value>2024-08-23T23:32:40.73Z</value>
      </time>
      <waveformID networkCode="TX" stationCode="PB32" locationCode="00" channelCode="HHZ"/>
      <filterID>Probability_0.261</filterID>
      <methodID>EQCCT</methodID>
      <phaseHint>P</phaseHint>
      <evaluationMode>automatic</evaluationMode>
      <creationInfo>
        <agencyID>TEXNET</agencyID>
        <author>EQCCT</author>
        <creationTime>2024-08-23T23:33:43.222052Z</creationTime>
      </creationInfo>
    </pick>
    <pick publicID="20240823.233240.73-EQCCT-TX.PB32.00.HHZ">
      <time>
        <value>2024-08-23T23:32:40.73Z</value>
      </time>
      <waveformID networkCode="TX" stationCode="PB32" locationCode="00" channelCode="HHZ"/>
      <filterID>Probability_0.266</filterID>
      <methodID>EQCCT</methodID>
      <phaseHint>P</phaseHint>
      <evaluationMode>automatic</evaluationMode>
      <creationInfo>
        <agencyID>TEXNET</agencyID>
        <author>EQCCT</author>
        <creationTime>2024-08-23T23:33:43.222098Z</creationTime>
      </creationInfo>
    </pick>
    <pick publicID="20240823.233240.73-EQCCT-TX.PB32.00.HHZ">
      <time>
        <value>2024-08-23T23:32:40.73Z</value>
      </time>
      <waveformID networkCode="TX" stationCode="PB32" locationCode="00" channelCode="HHZ"/>
      <filterID>Probability_0.266</filterID>
      <methodID>EQCCT</methodID>
      <phaseHint>P</phaseHint>
      <evaluationMode>automatic</evaluationMode>
      <creationInfo>
        <agencyID>TEXNET</agencyID>
        <author>EQCCT</author>
        <creationTime>2024-08-23T23:33:43.222127Z</creationTime>
      </creationInfo>
    </pick>
    <pick publicID="20240823.215619.77-EQCCT-TX.PB04.00.HHZ">
      <time>
        <value>2024-08-23T21:56:19.77Z</value>
      </time>
      <waveformID networkCode="TX" stationCode="PB04" locationCode="00" channelCode="HHZ"/>
      <filterID>Probability_0.003</filterID>
      <methodID>EQCCT</methodID>
      <phaseHint>P</phaseHint>
      <evaluationMode>automatic</evaluationMode>
      <creationInfo>
        <agencyID>TEXNET</agencyID>
        <author>EQCCT</author>
        <creationTime>2024-08-23T21:57:34.79255Z</creationTime>
      </creationInfo>
    </pick>
    <pick publicID="20240823.215619.78-EQCCT-TX.PB04.00.HHZ">
      <time>
        <value>2024-08-23T21:56:19.78Z</value>
      </time>
      <waveformID networkCode="TX" stationCode="PB04" locationCode="00" channelCode="HHZ"/>
      <filterID>Probability_0.003</filterID>
      <methodID>EQCCT</methodID>
      <phaseHint>P</phaseHint>
      <evaluationMode>automatic</evaluationMode>
      <creationInfo>
        <agencyID>TEXNET</agencyID>
        <author>EQCCT</author>
        <creationTime>2024-08-23T21:57:34.792595Z</creationTime>
      </creationInfo>
    </pick>
    <pick publicID="20240823.215619.77-EQCCT-TX.PB04.00.HHZ">
      <time>
        <value>2024-08-23T21:56:19.77Z</value>
      </time>
      <waveformID networkCode="TX" stationCode="PB04" locationCode="00" channelCode="HHZ"/>
      <filterID>Probability_0.003</filterID>
      <methodID>EQCCT</methodID>
      <phaseHint>P</phaseHint>
      <evaluationMode>automatic</evaluationMode>
      <creationInfo>
        <agencyID>TEXNET</agencyID>
        <author>EQCCT</author>
        <creationTime>2024-08-23T21:57:34.792626Z</creationTime>
      </creationInfo>
    </pick>
    <pick publicID="20240823.223956.32-EQCCT-TX.PB17.00.HHZ">
      <time>
        <value>2024-08-23T22:39:56.329Z</value>
      </time>
      <waveformID networkCode="TX" stationCode="PB17" locationCode="00" channelCode="HHZ"/>
      <filterID>Probability_0.004</filterID>
      <methodID>EQCCT</methodID>
      <phaseHint>P</phaseHint>
      <evaluationMode>automatic</evaluationMode>
      <creationInfo>
        <agencyID>TEXNET</agencyID>
        <author>EQCCT</author>
        <creationTime>2024-08-23T22:41:10.551393Z</creationTime>
      </creationInfo>
    </pick>
    <pick publicID="20240823.224010.33-EQCCT-TX.PB32.00.HHZ">
      <time>
        <value>2024-08-23T22:40:10.33Z</value>
      </time>
      <waveformID networkCode="TX" stationCode="PB32" locationCode="00" channelCode="HHZ"/>
      <filterID>Probability_0.546</filterID>
      <methodID>EQCCT</methodID>
      <phaseHint>P</phaseHint>
      <evaluationMode>automatic</evaluationMode>
      <creationInfo>
        <agencyID>TEXNET</agencyID>
        <author>EQCCT</author>
        <creationTime>2024-08-23T22:41:10.551443Z</creationTime>
      </creationInfo>
    </pick>
    <pick publicID="20240823.224013.71-EQCCT-TX.PB32.00.HHZ">
      <time>
        <value>2024-08-23T22:40:13.71Z</value>
      </time>
      <waveformID networkCode="TX" stationCode="PB32" locationCode="00" channelCode="HHZ"/>
      <filterID>Probability_0.25</filterID>
      <methodID>EQCCT</methodID>
      <phaseHint>S</phaseHint>
      <evaluationMode>automatic</evaluationMode>
      <creationInfo>
        <agencyID>TEXNET</agencyID>
        <author>EQCCT</author>
        <creationTime>2024-08-23T22:41:10.551476Z</creationTime>
      </creationInfo>
      <comment>
        <text>20240823.224010.33-EQCCT-TX.PB32.00.HHZ</text>
        <id>RefPickID</id>
      </comment>
    </pick>
    <pick publicID="20240823.223956.32-EQCCT-TX.PB17.00.HHZ">
      <time>
        <value>2024-08-23T22:39:56.329Z</value>
      </time>
      <waveformID networkCode="TX" stationCode="PB17" locationCode="00" channelCode="HHZ"/>
      <filterID>Probability_0.004</filterID>
      <methodID>EQCCT</methodID>
      <phaseHint>P</phaseHint>
      <evaluationMode>automatic</evaluationMode>
      <creationInfo>
        <agencyID>TEXNET</agencyID>
